{
  "type": "FeatureCollection",
  "features": [
    {
      "type": "Feature",
      "properties": {
        "norad_id": 31508,
        "name": "FENGYUN 1C DEB",
        "group": "fengyun-1c-debris",
        "lat": 72.37541255509505,
        "lon": 63.03737980395541,
        "alt_km": 681.7808706790083,
        "timestamp": "2025-12-09T04:51:47.775855+00:00",
        "meta_object_name": "FENGYUN 1C DEB",
        "meta_object_id": "1999-025BWX",
        "meta_epoch": "2025-12-06T12:28:43.968576",
        "meta_mean_motion": 14.62244446,
        "meta_eccentricity": 0.00332175,
        "meta_inclination": 98.6332,
        "meta_ra_of_asc_node": 88.8049,
        "meta_arg_of_pericenter": 344.7452,
        "meta_mean_anomaly": 15.2744,
        "meta_ephemeris_type": 0,
        "meta_classification_type": "U",
        "meta_norad_cat_id": 31508,
        "meta_element_set_no": 999,
        "meta_rev_at_epoch": 96833,
        "meta_bstar": 0.004912467,
        "meta_mean_motion_dot": 0.00024993,
        "meta_mean_motion_ddot": 0,
        "tle_line1": "1 31508U 99025BWX 25340.51995334  .00024993  00000+0  49125-2 0  9994",
        "tle_line2": "2 31508  98.6332  88.8049 0033217 344.7452  15.2744 14.62244446968331"
      },
      "geometry": {
        "type": "Point",
        "coordinates": [
          63.03737980395541,
          72.37541255509505
        ]
      }
    },
    {
      "type": "Feature",
      "properties": {
        "norad_id": 31509,
        "name": "FENGYUN 1C DEB",
        "group": "fengyun-1c-debris",
        "lat": -76.95767141035014,
        "lon": -120.78022526794564,
        "alt_km": 792.5441265431227,
        "timestamp": "2025-12-09T04:51:47.775864+00:00",
        "meta_object_name": "FENGYUN 1C DEB",
        "meta_object_id": "1999-025BWY",
        "meta_epoch": "2025-12-08T19:00:27.434880",
        "meta_mean_motion": 13.94852402,
        "meta_eccentricity": 0.0204163,
        "meta_inclination": 99.0226,
        "meta_ra_of_asc_node": 102.1249,
        "meta_arg_of_pericenter": 229.1585,
        "meta_mean_anomaly": 129.1722,
        "meta_ephemeris_type": 0,
        "meta_classification_type": "U",
        "meta_norad_cat_id": 31509,
        "meta_element_set_no": 999,
        "meta_rev_at_epoch": 93907,
        "meta_bstar": 0.0039149,
        "meta_mean_motion_dot": 6.212e-05,
        "meta_mean_motion_ddot": 0,
        "tle_line1": "1 31509U 99025BWY 25342.79198420  .00006212  00000+0  39149-2 0  9997",
        "tle_line2": "2 31509  99.0226 102.1249 0204163 229.1585 129.1722 13.94852402939075"
      },
      "geometry": {
        "type": "Point",
        "coordinates": [
          -120.78022526794564,
          -76.95767141035014
        ]
      }
    },
    {
      "type": "Feature",
      "properties": {
        "norad_id": 31510,
        "name": "FENGYUN 1C DEB",
        "group": "fengyun-1c-debris",
        "lat": 13.717470438506277,
        "lon": -19.608914871980453,
        "alt_km": 788.1503002244199,
        "timestamp": "2025-12-09T04:51:47.775875+00:00",
        "meta_object_name": "FENGYUN 1C DEB",
        "meta_object_id": "1999-025BWZ",
        "meta_epoch": "2025-12-08T19:16:10.278336",
        "meta_mean_motion": 14.24548656,
        "meta_eccentricity": 0.0037344,
        "meta_inclination": 98.5536,
        "meta_ra_of_asc_node": 342.1072,
        "meta_arg_of_pericenter": 343.301,
        "meta_mean_anomaly": 141.6103,
        "meta_ephemeris_type": 0,
        "meta_classification_type": "U",
        "meta_norad_cat_id": 31510,
        "meta_element_set_no": 999,
        "meta_rev_at_epoch": 96431,
        "meta_bstar": 0.00099236,
        "meta_mean_motion_dot": 2.277e-05,
        "meta_mean_motion_ddot": 0,
        "tle_line1": "1 31510U 99025BWZ 25342.80289674  .00002277  00000+0  99236-3 0  9994",
        "tle_line2": "2 31510  98.5536 342.1072 0037344 343.3010 141.6103 14.24548656964316"
      },
      "geometry": {
        "type": "Point",
        "coordinates": [
          -19.608914871980453,
          13.717470438506277
        ]
      }
    },
    {
      "type": "Feature",
      "properties": {
        "norad_id": 31511,
        "name": "FENGYUN 1C DEB",
        "group": "fengyun-1c-debris",
        "lat": -37.090000493619556,
        "lon": 158.64852644596533,
        "alt_km": 798.0318850061376,
        "timestamp": "2025-12-09T04:51:47.775885+00:00",
        "meta_object_name": "FENGYUN 1C DEB",
        "meta_object_id": "1999-025BXA",
        "meta_epoch": "2025-12-05T22:00:15.181632",
        "meta_mean_motion": 14.27991614,
        "meta_eccentricity": 0.01096951,
        "meta_inclination": 99.0676,
        "meta_ra_of_asc_node": 148.3037,
        "meta_arg_of_pericenter": 246.1309,
        "meta_mean_anomaly": 112.8345,
        "meta_ephemeris_type": 0,
        "meta_classification_type": "U",
        "meta_norad_cat_id": 31511,
        "meta_element_set_no": 999,
        "meta_rev_at_epoch": 95703,
        "meta_bstar": 0.002130032,
        "meta_mean_motion_dot": 5.59e-05,
        "meta_mean_motion_ddot": 0,
        "tle_line1": "1 31511U 99025BXA 25339.91684238  .00005590  00000+0  21300-2 0  9995",
        "tle_line2": "2 31511  99.0676 148.3037 0109695 246.1309 112.8345 14.27991614957033"
      },
      "geometry": {
        "type": "Point",
        "coordinates": [
          158.64852644596533,
          -37.090000493619556
        ]
      }
    },
    {
      "type": "Feature",
      "properties": {
        "norad_id": 31512,
        "name": "FENGYUN 1C DEB",
        "group": "fengyun-1c-debris",
        "lat": -0.8164578814886634,
        "lon": -121.41041333732723,
        "alt_km": 844.1822887218159,
        "timestamp": "2025-12-09T04:51:47.775895+00:00",
        "meta_object_name": "FENGYUN 1C DEB",
        "meta_object_id": "1999-025BXB",
        "meta_epoch": "2025-12-08T12:48:35.254368",
        "meta_mean_motion": 14.43799884,
        "meta_eccentricity": 0.01441178,
        "meta_inclination": 98.8038,
        "meta_ra_of_asc_node": 237.7712,
        "meta_arg_of_pericenter": 159.54,
        "meta_mean_anomaly": 325.6623,
        "meta_ephemeris_type": 0,
        "meta_classification_type": "U",
        "meta_norad_cat_id": 31512,
        "meta_element_set_no": 999,
        "meta_rev_at_epoch": 65441,
        "meta_bstar": 0.00071474432,
        "meta_mean_motion_dot": 2.709e-05,
        "meta_mean_motion_ddot": 0,
        "tle_line1": "1 31512U 99025BXB 25342.53374137  .00002709  00000+0  71474-3 0  9999",
        "tle_line2": "2 31512  98.8038 237.7712 0144117 159.5400 325.6623 14.43799884654415"
      },
      "geometry": {
        "type": "Point",
        "coordinates": [
          -121.41041333732723,
          -0.8164578814886634
        ]
      }
    },
    {
      "type": "Feature",
      "properties": {
        "norad_id": 31513,
        "name": "FENGYUN 1C DEB",
        "group": "fengyun-1c-debris",
        "lat": -7.952674508142753,
        "lon": 81.098089441151,
        "alt_km": 803.4221928751922,
        "timestamp": "2025-12-09T04:51:47.775905+00:00",
        "meta_object_name": "FENGYUN 1C DEB",
        "meta_object_id": "1999-025BXC",
        "meta_epoch": "2025-11-25T02:15:23.832576",
        "meta_mean_motion": 14.32315683,
        "meta_eccentricity": 0.00282412,
        "meta_inclination": 98.8622,
        "meta_ra_of_asc_node": 65.435,
        "meta_arg_of_pericenter": 176.3464,
        "meta_mean_anomaly": 183.7931,
        "meta_ephemeris_type": 0,
        "meta_classification_type": "U",
        "meta_norad_cat_id": 31513,
        "meta_element_set_no": 999,
        "meta_rev_at_epoch": 72616,
        "meta_bstar": 0.0023967664,
        "meta_mean_motion_dot": 6.459e-05,
        "meta_mean_motion_ddot": 0,
        "tle_line1": "1 31513U 99025BXC 25329.09402584  .00006459  00000+0  23968-2 0  9994",
        "tle_line2": "2 31513  98.8622  65.4350 0028241 176.3464 183.7931 14.32315683726161"
      },
      "geometry": {
        "type": "Point",
        "coordinates": [
          81.098089441151,
          -7.952674508142753
        ]
      }
    },
    {
      "type": "Feature",
      "properties": {
        "norad_id": 31514,
        "name": "FENGYUN 1C DEB",
        "group": "fengyun-1c-debris",
        "lat": 53.07280132699654,
        "lon": -128.7365672463951,
        "alt_km": 804.6479974544291,
        "timestamp": "2025-12-09T04:51:47.775914+00:00",
        "meta_object_name": "FENGYUN 1C DEB",
        "meta_object_id": "1999-025BXD",
        "meta_epoch": "2025-12-08T16:46:46.444224",
        "meta_mean_motion": 14.20945715,
        "meta_eccentricity": 0.0052414,
        "meta_inclination": 99.2466,
        "meta_ra_of_asc_node": 243.2552,
        "meta_arg_of_pericenter": 126.5945,
        "meta_mean_anomaly": 234.0069,
        "meta_ephemeris_type": 0,
        "meta_classification_type": "U",
        "meta_norad_cat_id": 31514,
        "meta_element_set_no": 999,
        "meta_rev_at_epoch": 69267,
        "meta_bstar": 0.0024431,
        "meta_mean_motion_dot": 5.32e-05,
        "meta_mean_motion_ddot": 0,
        "tle_line1": "1 31514U 99025BXD 25342.69914866  .00005320  00000+0  24431-2 0  9999",
        "tle_line2": "2 31514  99.2466 243.2552 0052414 126.5945 234.0069 14.20945715692675"
      },
      "geometry": {
        "type": "Point",
        "coordinates": [
          -128.7365672463951,
          53.07280132699654
        ]
      }
    }
  ]
}